0 COSMOS 2251 DEB
1 35644U 93036ANK 13282.07237421  .00015440  00000-0  30743-2 0  4892
2 35644 074.0265 046.3740 0049614 256.6911 216.8894 14.61268723240101
0 COSMOS 2251 DEB
1 35644U 93036ANK 13283.69376878  .00016326  00000-0  32468-2 0  4914
2 35644 074.0301 043.2804 0049395 253.8300 105.7917 14.61298258240340
0 COSMOS 2251 DEB
1 35644U 93036ANK 13284.05782647  .00013459  00000-0  26785-2 0  4908
2 35644 074.0261 042.5747 0049774 252.6498 221.4226 14.61313928240395
0 COSMOS 2251 DEB
1 35644U 93036ANK 13285.69157559  .00011418  00000-0  22720-2 0  4916
2 35644 074.0261 039.4479 0049901 249.3446 176.0177 14.61347670240638
0 COSMOS 2251 DEB
1 35644U 93036ANK 13287.67673906  .00015678  00000-0  31122-2 0  4924
2 35644 074.0269 035.6495 0050009 245.3692 179.5163 14.61389783240928
0 COSMOS 2251 DEB
1 35644U 93036ANK 13289.99178058  .00013066  00000-0  25915-2 0  4932
2 35644 074.0300 031.2196 0050090 238.8164 120.8570 14.61460527241260
0 COSMOS 2251 DEB
1 35644U 93036ANK 13290.97346329  .00014534  00000-0  28792-2 0  4948
2 35644 074.0275 029.3404 0050194 238.8578 243.6259 14.61490203241403
0 COSMOS 2251 DEB
1 35644U 93036ANK 13292.95834841  .00013232  00000-0  26193-2 0  4957
2 35644 074.0272 025.5408 0050238 234.8622 246.7264 14.61540849241690
0 COSMOS 2251 DEB
1 35644U 93036ANK 13295.90086925  .00016212  00000-0  32013-2 0  4967
2 35644 074.0264 019.9080 0050220 229.0357 248.8107 14.61614271242125
